NORAD_CAT_ID,OBJECT_NAME,OBJECT_TYPE,EPOCH,MEAN_MOTION,ECCENTRICITY,INCLINATION,RA_OF_ASC_NODE,ARG_OF_PERICENTER,MEAN_ANOMALY,BSTAR,MEAN_MOTION_DOT,MEAN_MOTION_DDOT,TLE_LINE0,TLE_LINE1,TLE_LINE2,SEMIMAJOR_AXIS,PERIOD,APOGEE,PERIGEE,DECAYED
51868.0,STARLINK-3578,PAYLOAD,2022-03-07 20:00:01,15.81806661,0.0001173,53.2173,123.3674,70.0962,105.0866,-0.0047281,-0.00881494,0.0,0 STARLINK-3578,1 51868U 22022S   22066.83334491 -.00881494  00000-0 -47281-2 0  9997,2 51868  53.2173 123.3674 0001173  70.0962 105.0866 15.81806661  1888,6703.469,91.035,326.12,324.547,0.0
51868.0,STARLINK-3578,PAYLOAD,2022-03-08 14:00:01,15.803837,0.0001093,53.2173,119.6139,69.2034,57.4011,-0.0049748999999999,-0.00869185,0.0,0 STARLINK-3578,1 51868U 22022S   22067.58334491 -.00869185  00000-0 -49749-2 0  9994,2 51868  53.2173 119.6139 0001093  69.2034  57.4011 15.80383700  1451,6707.4919999999975,91.117,330.09,328.624,0.0
51868.0,STARLINK-3578,PAYLOAD,2022-03-08 20:00:01,15.79917762,0.0001144,53.2175,118.3624,58.1314,51.428,-0.0051452,-0.00878804,0.0,0 STARLINK-3578,1 51868U 22022S   22067.83334491 -.00878804  00000-0 -51452-2 0  9994,2 51868  53.2175 118.3624 0001144  58.1314  51.4280 15.79917762  2039,6708.81,91.144,331.4430000000001,329.908,0.0
51868.0,STARLINK-3578,PAYLOAD,2022-03-08 22:00:00,15.79758681,0.0001167,53.2176,117.9454,67.3287,156.4558,-0.0051638,-0.00875858,0.0,0 STARLINK-3578,1 51868U 22022S   22067.91667824 -.00875858  00000-0 -51638-2 0  9994,2 51868  53.2176 117.9454 0001167  67.3287 156.4558 15.79758681  1500,6709.261,91.153,331.909,330.343,0.0
51868.0,STARLINK-3578,PAYLOAD,2022-03-09 14:00:01,15.78497674,0.0001056,53.2173,114.6192,60.4833,355.3924,-0.0054386,-0.00871219,0.0,0 STARLINK-3578,1 51868U 22022S   22068.58334491 -.00871219  00000-0 -54386-2 0  9999,2 51868  53.2173 114.6192 0001056  60.4833 355.3924 15.78497674  1618,6712.834,91.226,335.407,333.99,0.0
51868.0,STARLINK-3578,PAYLOAD,2022-03-09 22:00:01,15.77869213,0.0001225,53.2173,112.9553,56.2153,94.6388,-0.0056037,-0.00872401,0.0,0 STARLINK-3578,1 51868U 22022S   22068.91668981 -.00872401  00000-0 -56037-2 0  9999,2 51868  53.2173 112.9553 0001225  56.2153  94.6388 15.77869213  2200,6714.616,91.262,337.30300000000005,335.658,0.0
51868.0,STARLINK-3578,PAYLOAD,2022-03-10 14:00:01,15.76610987,0.0001022,53.2173,109.6386,67.1098,271.2314,-0.0059288,-0.00872261,0.0,0 STARLINK-3578,1 51868U 22022S   22069.58334491 -.00872261  00000-0 -59288-2 0  9994,2 51868  53.2173 109.6386 0001022  67.1098 271.2314 15.76610987  1775,6718.188,91.335,340.7390000000001,339.366,0.0
51868.0,STARLINK-3578,PAYLOAD,2022-03-10 20:00:01,15.76142137,0.000112,53.2176,108.3939,59.1123,258.7823,-0.0060966,-0.00877855,0.0,0 STARLINK-3578,1 51868U 22022S   22069.83334491 -.00877855  00000-0 -60966-2 0  9991,2 51868  53.2176 108.3939 0001120  59.1123 258.7823 15.76142137  2354,6719.52,91.362,342.1380000000001,340.63199999999995,0.0
51868.0,STARLINK-3578,PAYLOAD,2022-03-10 22:00:01,15.759812099999998,0.000113,53.2175,107.9793,51.6794,19.3722,-0.0060941,-0.00871884,0.0,0 STARLINK-3578,1 51868U 22022S   22069.91668981 -.00871884  00000-0 -60941-2 0  9993,2 51868  53.2175 107.9793 0001130  51.6794  19.3722 15.75981210  1820,6719.977,91.372,342.602,341.083,0.0
51868.0,STARLINK-3578,PAYLOAD,2022-03-11 12:00:00,15.74878853,0.0001250999999999,53.2176,105.0852,62.8906,78.4,-0.0063799999999999,-0.0086972,0.0,0 STARLINK-3578,1 51868U 22022S   22070.50001157 -.00869720  00000-0 -63800-2 0  9999,2 51868  53.2176 105.0852 0001251  62.8906  78.4000 15.74878853  1911,6723.113,91.436,345.819,344.13699999999994,0.0
51868.0,STARLINK-3578,PAYLOAD,2022-03-11 20:00:01,15.74255192,0.000132,53.2175,103.4305,55.3347,176.5185,-0.0066364999999999,-0.00879319,0.0,0 STARLINK-3578,1 51868U 22022S   22070.83334491 -.00879319  00000-0 -66365-2 0  9999,2 51868  53.2175 103.4305 0001320  55.3347 176.5185 15.74255192  2514,6724.888000000001,91.472,347.641,345.866,0.0
51868.0,STARLINK-3578,PAYLOAD,2022-03-11 22:00:00,15.74091783,0.0001136,53.2173,103.0172,52.0985,292.2796,-0.0065983999999999,-0.00869086,0.0,0 STARLINK-3578,1 51868U 22022S   22070.91667824 -.00869086  00000-0 -65984-2 0  9993,2 51868  53.2173 103.0172 0001136  52.0985 292.2796 15.74091783  1985,6725.354,91.481,347.983,346.455,0.0
51868.0,STARLINK-3578,PAYLOAD,2022-03-12 06:00:00,15.73287702,0.0001315,53.2174,101.3673,45.3019,28.716,-0.00094263,-0.00131358,0.0,0 STARLINK-3578,1 51868U 22022S   22071.25001157 -.00131358  00000-0 -94263-3 0  9999,2 51868  53.2174 101.3673 0001315  45.3019  28.7160 15.73287702  2575,6727.645,91.528,350.395,348.625,0.0
51868.0,STARLINK-3578,PAYLOAD,2022-03-12 14:00:01,15.73204973,0.0001119,53.2172,99.7186,69.5242,93.4681,-3.6893e-06,-1.137e-05,0.0,0 STARLINK-3578,1 51868U 22022S   22071.58334491 -.00001137  00000-0 -36893-5 0  9993,2 51868  53.2172  99.7186 0001119  69.5242  93.4681 15.73204973  2633,6727.880999999999,91.533,350.499,348.99300000000005,0.0
51868.0,STARLINK-3578,PAYLOAD,2022-03-12 20:00:01,15.73237252,0.0001372,53.2191,98.4865,58.8652,80.9877,-0.00028082,-0.00039908,0.0,0 STARLINK-3578,1 51868U 22022S   22071.83334491 -.00039908  00000-0 -28082-3 0  9997,2 51868  53.2191  98.4865 0001372  58.8652  80.9877 15.73237252  2668,6727.7890000000025,91.531,350.577,348.731,0.0
51868.0,STARLINK-3578,PAYLOAD,2022-03-12 22:00:00,15.73214025,0.0001358,53.2189,98.0737,60.9811,191.1195,-1.7298e-05,-3.048e-05,0.0,0 STARLINK-3578,1 51868U 22022S   22071.91667824 -.00003048  00000-0 -17298-4 0  9999,2 51868  53.2189  98.0737 0001358  60.9811 191.1195 15.73214025  2148,6727.855,91.532,350.634,348.807,0.0
51868.0,STARLINK-3578,PAYLOAD,2022-03-13 14:00:01,15.73143729,0.0001354,53.2182,94.7769,45.6134,24.3087,0.0004461,0.00062301,0.0,0 STARLINK-3578,1 51868U 22022S   22072.58334491  .00062301  00000-0  44610-3 0  9996,2 51868  53.2182  94.7769 0001354  45.6134  24.3087 15.73143729  2782,6728.056,91.536,350.832,349.01,0.0
51868.0,STARLINK-3578,PAYLOAD,2022-03-13 22:00:01,15.73156358,0.00011,53.2181,93.1256,56.2244,102.6568,0.00064909,0.00091299,0.0,0 STARLINK-3578,1 51868U 22022S   22072.91668981  .00091299  00000-0  64909-3 0  9998,2 51868  53.2181  93.1256 0001100  56.2244 102.6568 15.73156358  2296,6728.02,91.536,350.625,349.145,0.0
51868.0,STARLINK-3578,PAYLOAD,2022-03-14 12:00:00,15.73239696,0.000119,53.2185,90.2413,41.9109,182.6585,0.00078001,0.00110487,0.0,0 STARLINK-3578,1 51868U 22022S   22073.50001157  .00110487  00000-0  78001-3 0  9999,2 51868  53.2185  90.2413 0001190  41.9109 182.6585 15.73239696  2938,6727.781999999997,91.531,350.4480000000001,348.846,0.0
51868.0,STARLINK-3578,PAYLOAD,2022-03-14 14:00:01,15.73261267,0.0001167,53.2184,89.8285,41.1215,295.7608,0.00067715,0.00095754,0.0,0 STARLINK-3578,1 51868U 22022S   22073.58335648  .00095754  00000-0  67715-3 0  9991,2 51868  53.2184  89.8285 0001167  41.1215 295.7608 15.73261267  2405,6727.721,91.53,350.371,348.8,0.0
51868.0,STARLINK-3578,PAYLOAD,2022-03-14 20:00:01,15.73291665,0.0001105,53.2188,88.5897,51.5108,262.0604,0.00024053,0.00033403,0.0,0 STARLINK-3578,1 51868U 22022S   22073.83334491  .00033403  00000-0  24053-3 0  9995,2 51868  53.2188  88.5897 0001105  51.5108 262.0604 15.73291665  2983,6727.634,91.528,350.242,348.755,0.0
51868.0,STARLINK-3578,PAYLOAD,2022-03-14 22:00:00,15.733153,0.0001178,53.2186,88.1769,55.0358,10.7931,-0.00012548,-0.00018279,0.0,0 STARLINK-3578,1 51868U 22022S   22073.91667824 -.00018279  00000-0 -12548-3 0  9995,2 51868  53.2186  88.1769 0001178  55.0358  10.7931 15.73315300  2996,6727.566,91.526,350.224,348.639,0.0
51868.0,STARLINK-3578,PAYLOAD,2022-03-15 02:00:01,15.73380244,0.0001307,53.2188,87.3523,60.5688,229.7772,-0.0015809,-0.00218505,0.0,0 STARLINK-3578,1 51868U 22022S   22074.08334491 -.00218505  00000-0 -15809-2 0  9991,2 51868  53.2188  87.3523 0001307  60.5688 229.7772 15.73380244  3027,6727.380999999999,91.523,350.126,348.367,0.0
51868.0,STARLINK-3578,PAYLOAD,2022-03-15 20:00:01,15.72975253,0.0001133,53.2181,83.6409,53.7222,166.6855,0.001272,0.00180032,0.0,0 STARLINK-3578,1 51868U 22022S   22074.83334491  .00180032  00000-0  12720-2 0  9994,2 51868  53.2181  83.6409 0001133  53.7222 166.6855 15.72975253  3140,6728.536,91.546,351.163,349.639,0.0
51868.0,STARLINK-3578,PAYLOAD,2022-03-15 22:00:00,15.72983876,0.0001136,53.2179,83.2284,58.0439,274.5417,0.0015316,0.00217975,0.0,0 STARLINK-3578,1 51868U 22022S   22074.91667824  .00217975  00000-0  15316-2 0  9993,2 51868  53.2179  83.2284 0001136  58.0439 274.5417 15.72983876  2619,6728.511,91.546,351.141,349.612,0.0
51868.0,STARLINK-3578,PAYLOAD,2022-03-16 12:00:00,15.73207868,0.000131,53.2181,80.3446,46.2292,351.7464,0.00057981,0.00081574,0.0,0 STARLINK-3578,1 51868U 22022S   22075.50001157  .00081574  00000-0  57981-3 0  9999,2 51868  53.2181  80.3446 0001310  46.2292 351.7464 15.73207868  3241,6727.873000000001,91.533,350.619,348.856,0.0
51868.0,STARLINK-3578,PAYLOAD,2022-03-16 14:00:01,15.73262885,0.0001267,53.2182,79.9317,48.8851,101.3175,-0.00019708,-0.0002826,0.0,0 STARLINK-3578,1 51868U 22022S   22075.58334491 -.00028260  00000-0 -19708-3 0  9997,2 51868  53.2182  79.9317 0001267  48.8851 101.3175 15.73262885  2723,6727.715999999999,91.53,350.43300000000005,348.728,0.0
51868.0,STARLINK-3578,PAYLOAD,2022-03-16 20:00:01,15.73205805,0.0001179,53.2184,78.6929,56.4734,70.4752,0.00018082,0.00024838,0.0,0 STARLINK-3578,1 51868U 22022S   22075.83334491  .00024838  00000-0  18082-3 0  9994,2 51868  53.2184  78.6929 0001179  56.4734  70.4752 15.73205805  3296,6727.879,91.533,350.537,348.95,0.0
51868.0,STARLINK-3578,PAYLOAD,2022-03-17 14:00:01,15.73213085,0.0001289,53.2179,74.9827,49.6238,7.4556,0.00018236,0.00025063,0.0,0 STARLINK-3578,1 51868U 22022S   22076.58334491  .00025063  00000-0  18236-3 0  9999,2 51868  53.2179  74.9827 0001289  49.6238   7.4556 15.73213085  3416,6727.858,91.532,350.59,348.856,0.0
